[{"OBJECT_NAME":"STARLINK-2624","OBJECT_ID":"2021-038F","EPOCH":"2026-03-09T05:44:57.836256","MEAN_MOTION":15.30187215,"ECCENTRICITY":0.00011863,"INCLINATION":53.162,"RA_OF_ASC_NODE":0.2505,"ARG_OF_PERICENTER":92.5071,"MEAN_ANOMALY":267.6066,"EPHEMERIS_TYPE":0,"CLASSIFICATION_TYPE":"U","NORAD_CAT_ID":48358,"ELEMENT_SET_NO":999,"REV_AT_EPOCH":26700,"BSTAR":-0.00012628578,"MEAN_MOTION_DOT":-4.096e-5,"MEAN_MOTION_DDOT":0},{"OBJECT_NAME":"KUIPER-00180","OBJECT_ID":"2026-030E","EPOCH":"2026-03-09T22:29:40.634304","MEAN_MOTION":15.31865817,"ECCENTRICITY":0.00157227,"INCLINATION":51.8823,"RA_OF_ASC_NODE":218.464,"ARG_OF_PERICENTER":75.5448,"MEAN_ANOMALY":284.728,"EPHEMERIS_TYPE":0,"CLASSIFICATION_TYPE":"U","NORAD_CAT_ID":67768,"ELEMENT_SET_NO":999,"REV_AT_EPOCH":512,"BSTAR":0.011360708,"MEAN_MOTION_DOT":0.00373574,"MEAN_MOTION_DDOT":0}]
